{
    "links": {
        "self": "http://www.neowsapp.com/rest/v1/neo/3782054?api_key=iIulBulltgU6a56xZRHN4H3l9WmuAYTsLGpBGhQ2"
    },
    "id": "3782054",
    "neo_reference_id": "3782054",
    "name": "(2017 TB1)",
    "designation": "2017 TB1",
    "nasa_jpl_url": "http://ssd.jpl.nasa.gov/sbdb.cgi?sstr=3782054",
    "absolute_magnitude_h": 24.8,
    "estimated_diameter": {
        "kilometers": {
            "estimated_diameter_min": 0.0291443905,
            "estimated_diameter_max": 0.0651688382
        },
        "meters": {
            "estimated_diameter_min": 29.1443904535,
            "estimated_diameter_max": 65.1688382168
        },
        "miles": {
            "estimated_diameter_min": 0.018109479,
            "estimated_diameter_max": 0.0404940262
        },
        "feet": {
            "estimated_diameter_min": 95.6180819754,
            "estimated_diameter_max": 213.8085311752
        }
    },
    "is_potentially_hazardous_asteroid": false,
    "close_approach_data": [
        {
            "close_approach_date": "2010-10-13",
            "close_approach_date_full": "2010-Oct-13 13:38",
            "epoch_date_close_approach": 1286977080000,
            "relative_velocity": {
                "kilometers_per_second": "11.8013940296",
                "kilometers_per_hour": "42485.0185065499",
                "miles_per_hour": "26398.538304806"
            },
            "miss_distance": {
                "astronomical": "0.2205830224",
                "lunar": "85.8067957136",
                "kilometers": "32998750.309202288",
                "miles": "20504472.6371080544"
            },
            "orbiting_body": "Earth"
        },
        {
            "close_approach_date": "2017-10-08",
            "close_approach_date_full": "2017-Oct-08 04:16",
            "epoch_date_close_approach": 1507436160000,
            "relative_velocity": {
                "kilometers_per_second": "10.1651826211",
                "kilometers_per_hour": "36594.6574359092",
                "miles_per_hour": "22738.497005107"
            },
            "miss_distance": {
                "astronomical": "0.0884370413",
                "lunar": "34.4020090657",
                "kilometers": "13229993.007582031",
                "miles": "8220736.4542967878"
            },
            "orbiting_body": "Earth"
        },
        {
            "close_approach_date": "2024-10-02",
            "close_approach_date_full": "2024-Oct-02 15:22",
            "epoch_date_close_approach": 1727882520000,
            "relative_velocity": {
                "kilometers_per_second": "11.3104151602",
                "kilometers_per_hour": "40717.4945767628",
                "miles_per_hour": "25300.267671878"
            },
            "miss_distance": {
                "astronomical": "0.2361468833",
                "lunar": "91.8611376037",
                "kilometers": "35327070.748818571",
                "miles": "21951223.8715394398"
            },
            "orbiting_body": "Earth"
        }
    ],
    "orbital_data": {
        "orbit_id": "4",
        "orbit_determination_date": "2017-10-14 06:19:06",
        "first_observation_date": "2017-10-01",
        "last_observation_date": "2017-10-13",
        "data_arc_in_days": 12,
        "observations_used": 33,
        "orbit_uncertainty": "8",
        "minimum_orbit_intersection": ".0881889",
        "jupiter_tisserand_invariant": "4.563",
        "epoch_osculation": "2458030.5",
        "eccentricity": ".2492115444727729",
        "semi_major_axis": "1.447662795095168",
        "inclination": "18.52193407251708",
        "ascending_node_longitude": "196.0982940794989",
        "orbital_period": "636.2086164443622",
        "perihelion_distance": "1.08688851405373",
        "perihelion_argument": "176.89080302",
        "aphelion_distance": "1.808437076136607",
        "perihelion_time": "2458032.363562698387",
        "mean_anomaly": "358.945499079895",
        "mean_motion": ".5658521288378099",
        "equinox": "J2000",
        "orbit_class": {
            "orbit_class_type": "AMO",
            "orbit_class_description": "Near-Earth asteroid orbits similar to that of 1221 Amor",
            "orbit_class_range": "1.017 AU < q (perihelion) < 1.3 AU"
        }
    },
    "is_sentry_object": false
}